0 FENGYUN 1C DEB
1 32101U 99025CQT 13283.61197454  .00001578  00000-0  13333-2 0  5145
2 32101 099.1128 209.9823 0149245 058.3136 303.2487 13.84175430314026
0 FENGYUN 1C DEB
1 32101U 99025CQT 13285.56361244  .00001640  00000-0  13826-2 0  5160
2 32101 099.1153 211.8806 0149748 054.1055 307.4115 13.84183969314298
0 FENGYUN 1C DEB
1 32101U 99025CQT 13288.02121172  .00001773  00000-0  14907-2 0  5177
2 32101 099.1134 214.2644 0150700 046.4888 314.8777 13.84195766314634
0 FENGYUN 1C DEB
1 32101U 99025CQT 13290.04510432  .00001789  00000-0  15030-2 0  5189
2 32101 099.1132 216.2269 0150836 041.0034 320.2410 13.84203624314910
0 FENGYUN 1C DEB
1 32101U 99025CQT 13292.57494862  .00001906  00000-0  15970-2 0  5192
2 32101 099.1194 218.6965 0151654 035.9203 325.2856 13.84216830315267
0 FENGYUN 1C DEB
1 32101U 99025CQT 13293.58685414  .00001952  00000-0  16352-2 0  5207
2 32101 099.1165 219.6696 0151586 032.3254 328.7081 13.84222579315409
0 FENGYUN 1C DEB
1 32101U 99025CQT 13295.03246328  .00002049  00000-0  17151-2 0  5213
2 32101 099.1165 221.0714 0151103 028.3717 332.6270 13.84231373315609
